[{"OBJECT_NAME":"CZ-6A DEB","OBJECT_ID":"2024-140AY","EPOCH":"2026-03-26T13:13:14.100960","MEAN_MOTION":16.00827966,"ECCENTRICITY":0.0009932,"INCLINATION":89.3306,"RA_OF_ASC_NODE":304.1988,"ARG_OF_PERICENTER":309.483,"MEAN_ANOMALY":50.5579,"EPHEMERIS_TYPE":0,"CLASSIFICATION_TYPE":"U","NORAD_CAT_ID":60647,"ELEMENT_SET_NO":999,"REV_AT_EPOCH":8553,"BSTAR":0.0073215,"MEAN_MOTION_DOT":0.03158132,"MEAN_MOTION_DDOT":0.014652},{"OBJECT_NAME":"STARLINK-11331 [DTC]","OBJECT_ID":"2024-184F","EPOCH":"2026-03-26T12:00:01.999296","MEAN_MOTION":15.99204571,"ECCENTRICITY":0.0013163,"INCLINATION":53.1452,"RA_OF_ASC_NODE":149.134,"ARG_OF_PERICENTER":14.0033,"MEAN_ANOMALY":32.4804,"EPHEMERIS_TYPE":0,"CLASSIFICATION_TYPE":"U","NORAD_CAT_ID":61537,"ELEMENT_SET_NO":999,"REV_AT_EPOCH":602,"BSTAR":0.00092111,"MEAN_MOTION_DOT":0.00463705,"MEAN_MOTION_DDOT":0.00010281},{"OBJECT_NAME":"BANDWAGON-2 OBJECT W","OBJECT_ID":"2024-247W","EPOCH":"2026-03-26T08:31:17.325696","MEAN_MOTION":15.99589374,"ECCENTRICITY":0.001597,"INCLINATION":44.9805,"RA_OF_ASC_NODE":320.9969,"ARG_OF_PERICENTER":236.8786,"MEAN_ANOMALY":123.0592,"EPHEMERIS_TYPE":0,"CLASSIFICATION_TYPE":"U","NORAD_CAT_ID":62397,"ELEMENT_SET_NO":999,"REV_AT_EPOCH":7105,"BSTAR":0.0019876,"MEAN_MOTION_DOT":0.01038129,"MEAN_MOTION_DDOT":0.00053283},{"OBJECT_NAME":"STARLINK-11687 [DTC]","OBJECT_ID":"2025-075H","EPOCH":"2026-03-26T14:53:28.912128","MEAN_MOTION":16.04055956,"ECCENTRICITY":0.0010966,"INCLINATION":42.987,"RA_OF_ASC_NODE":46.0996,"ARG_OF_PERICENTER":181.8256,"MEAN_ANOMALY":178.2585,"EPHEMERIS_TYPE":0,"CLASSIFICATION_TYPE":"U","NORAD_CAT_ID":63555,"ELEMENT_SET_NO":999,"REV_AT_EPOCH":5597,"BSTAR":0.0017093,"MEAN_MOTION_DOT":0.01153041,"MEAN_MOTION_DDOT":0.00072608},{"OBJECT_NAME":"COSMOS 2591","OBJECT_ID":"2025-182A","EPOCH":"2026-03-26T11:43:05.639808","MEAN_MOTION":15.96391922,"ECCENTRICITY":0.0009237,"INCLINATION":96.5923,"RA_OF_ASC_NODE":18.3805,"ARG_OF_PERICENTER":113.8189,"MEAN_ANOMALY":246.4058,"EPHEMERIS_TYPE":0,"CLASSIFICATION_TYPE":"U","NORAD_CAT_ID":65267,"ELEMENT_SET_NO":999,"REV_AT_EPOCH":3450,"BSTAR":6.3093e-5,"MEAN_MOTION_DOT":0.00025716,"MEAN_MOTION_DDOT":2.105e-6},{"OBJECT_NAME":"COSMOS 2592","OBJECT_ID":"2025-182B","EPOCH":"2026-03-26T10:35:22.556256","MEAN_MOTION":15.96457271,"ECCENTRICITY":0.0009335,"INCLINATION":96.5891,"RA_OF_ASC_NODE":18.2903,"ARG_OF_PERICENTER":115.6806,"MEAN_ANOMALY":244.5438,"EPHEMERIS_TYPE":0,"CLASSIFICATION_TYPE":"U","NORAD_CAT_ID":65268,"ELEMENT_SET_NO":999,"REV_AT_EPOCH":3449,"BSTAR":0.00015936,"MEAN_MOTION_DOT":0.00066088,"MEAN_MOTION_DDOT":3.514e-6},{"OBJECT_NAME":"COSMOS 2593","OBJECT_ID":"2025-182C","EPOCH":"2026-03-26T12:28:14.746368","MEAN_MOTION":15.96354201,"ECCENTRICITY":0.0010387,"INCLINATION":96.5864,"RA_OF_ASC_NODE":18.3409,"ARG_OF_PERICENTER":111.2966,"MEAN_ANOMALY":248.9422,"EPHEMERIS_TYPE":0,"CLASSIFICATION_TYPE":"U","NORAD_CAT_ID":65269,"ELEMENT_SET_NO":999,"REV_AT_EPOCH":3450,"BSTAR":0.00022455,"MEAN_MOTION_DOT":0.00092937,"MEAN_MOTION_DDOT":5.1379e-6},{"OBJECT_NAME":"COSMOS 2594","OBJECT_ID":"2025-182D","EPOCH":"2026-03-26T06:49:43.874112","MEAN_MOTION":15.96327841,"ECCENTRICITY":0.0009941,"INCLINATION":96.5868,"RA_OF_ASC_NODE":18.0923,"ARG_OF_PERICENTER":112.8616,"MEAN_ANOMALY":247.3713,"EPHEMERIS_TYPE":0,"CLASSIFICATION_TYPE":"U","NORAD_CAT_ID":65270,"ELEMENT_SET_NO":999,"REV_AT_EPOCH":3448,"BSTAR":6.5495e-6,"MEAN_MOTION_DOT":2.139e-5,"MEAN_MOTION_DDOT":1.8468e-6},{"OBJECT_NAME":"STARLINK-34411","OBJECT_ID":"2025-192L","EPOCH":"2026-03-26T14:47:51.845856","MEAN_MOTION":16.01395355,"ECCENTRICITY":0.0011967,"INCLINATION":53.1317,"RA_OF_ASC_NODE":133.5157,"ARG_OF_PERICENTER":2.1342,"MEAN_ANOMALY":357.9738,"EPHEMERIS_TYPE":0,"CLASSIFICATION_TYPE":"U","NORAD_CAT_ID":65414,"ELEMENT_SET_NO":999,"REV_AT_EPOCH":3225,"BSTAR":0.0015767,"MEAN_MOTION_DOT":0.00898299,"MEAN_MOTION_DDOT":0.00040379},{"OBJECT_NAME":"CZ-4B R/B","OBJECT_ID":"2025-314B","EPOCH":"2026-03-26T12:20:08.280672","MEAN_MOTION":16.08609211,"ECCENTRICITY":0.0050103,"INCLINATION":97.361,"RA_OF_ASC_NODE":168.7334,"ARG_OF_PERICENTER":45.6292,"MEAN_ANOMALY":314.9078,"EPHEMERIS_TYPE":0,"CLASSIFICATION_TYPE":"U","NORAD_CAT_ID":67301,"ELEMENT_SET_NO":999,"REV_AT_EPOCH":1360,"BSTAR":0.00072158,"MEAN_MOTION_DOT":0.007368,"MEAN_MOTION_DDOT":2.3295e-6},{"OBJECT_NAME":"STARLINK-37162","OBJECT_ID":"2026-055A","EPOCH":"2026-03-26T12:00:01.999296","MEAN_MOTION":15.99673549,"ECCENTRICITY":6.66e-5,"INCLINATION":53.1595,"RA_OF_ASC_NODE":253.6676,"ARG_OF_PERICENTER":101.3284,"MEAN_ANOMALY":193.9019,"EPHEMERIS_TYPE":0,"CLASSIFICATION_TYPE":"U","NORAD_CAT_ID":68262,"ELEMENT_SET_NO":999,"REV_AT_EPOCH":233,"BSTAR":-0.0018934,"MEAN_MOTION_DOT":-0.00977593,"MEAN_MOTION_DDOT":0.00031771},{"OBJECT_NAME":"STARLINK-37156","OBJECT_ID":"2026-055B","EPOCH":"2026-03-26T12:00:01.999296","MEAN_MOTION":15.9976561,"ECCENTRICITY":5.99e-5,"INCLINATION":53.1594,"RA_OF_ASC_NODE":253.6643,"ARG_OF_PERICENTER":91.1157,"MEAN_ANOMALY":205.8339,"EPHEMERIS_TYPE":0,"CLASSIFICATION_TYPE":"U","NORAD_CAT_ID":68263,"ELEMENT_SET_NO":999,"REV_AT_EPOCH":233,"BSTAR":-0.0018968,"MEAN_MOTION_DOT":-0.00984401,"MEAN_MOTION_DDOT":0.00032204},{"OBJECT_NAME":"STARLINK-37163","OBJECT_ID":"2026-055C","EPOCH":"2026-03-26T12:00:01.999296","MEAN_MOTION":16.00015137,"ECCENTRICITY":6.21e-5,"INCLINATION":53.1593,"RA_OF_ASC_NODE":253.6549,"ARG_OF_PERICENTER":86.9887,"MEAN_ANOMALY":214.213,"EPHEMERIS_TYPE":0,"CLASSIFICATION_TYPE":"U","NORAD_CAT_ID":68264,"ELEMENT_SET_NO":999,"REV_AT_EPOCH":233,"BSTAR":-0.0018679,"MEAN_MOTION_DOT":-0.00983381,"MEAN_MOTION_DDOT":0.0003223},{"OBJECT_NAME":"STARLINK-37133","OBJECT_ID":"2026-055D","EPOCH":"2026-03-26T12:00:01.999296","MEAN_MOTION":15.99894069,"ECCENTRICITY":5.45e-5,"INCLINATION":53.1593,"RA_OF_ASC_NODE":253.6597,"ARG_OF_PERICENTER":98.0804,"MEAN_ANOMALY":201.0509,"EPHEMERIS_TYPE":0,"CLASSIFICATION_TYPE":"U","NORAD_CAT_ID":68265,"ELEMENT_SET_NO":999,"REV_AT_EPOCH":233,"BSTAR":-0.001884,"MEAN_MOTION_DOT":-0.00984979,"MEAN_MOTION_DDOT":0.00032282},{"OBJECT_NAME":"STARLINK-37042","OBJECT_ID":"2026-055E","EPOCH":"2026-03-26T12:00:01.999296","MEAN_MOTION":16.00176104,"ECCENTRICITY":5.27e-5,"INCLINATION":53.1592,"RA_OF_ASC_NODE":253.6497,"ARG_OF_PERICENTER":88.0644,"MEAN_ANOMALY":215.8605,"EPHEMERIS_TYPE":0,"CLASSIFICATION_TYPE":"U","NORAD_CAT_ID":68266,"ELEMENT_SET_NO":999,"REV_AT_EPOCH":233,"BSTAR":-0.0018554,"MEAN_MOTION_DOT":-0.00985802,"MEAN_MOTION_DDOT":0.0003243},{"OBJECT_NAME":"STARLINK-37103","OBJECT_ID":"2026-055F","EPOCH":"2026-03-26T12:00:01.999296","MEAN_MOTION":16.00315081,"ECCENTRICITY":6.12e-5,"INCLINATION":53.1594,"RA_OF_ASC_NODE":253.6447,"ARG_OF_PERICENTER":89.9023,"MEAN_ANOMALY":216.3464,"EPHEMERIS_TYPE":0,"CLASSIFICATION_TYPE":"U","NORAD_CAT_ID":68267,"ELEMENT_SET_NO":999,"REV_AT_EPOCH":233,"BSTAR":-0.0018424,"MEAN_MOTION_DOT":-0.00986728,"MEAN_MOTION_DDOT":0.00032534}]
