CZ-6A DEB               
1 60647U 24140AY  26085.55085765  .03158132  14652-1  73215-2 0  9998
2 60647  89.3306 304.1988 0009932 309.4830  50.5579 16.00827966 85534
STARLINK-11331 [DTC]    
1 61537U 24184F   26085.50002314  .00463705  10281-3  92111-3 0  9994
2 61537  53.1452 149.1340 0013163  14.0033  32.4804 15.99204571  6023
BANDWAGON-2 OBJECT W    
1 62397U 24247W   26085.35506164  .01038129  53283-3  19876-2 0  9998
2 62397  44.9805 320.9969 0015970 236.8786 123.0592 15.99589374 71054
STARLINK-11687 [DTC]    
1 63555U 25075H   26085.62047352  .01153041  72608-3  17093-2 0  9996
2 63555  42.9870  46.0996 0010966 181.8256 178.2585 16.04055956 55976
COSMOS 2591             
1 65267U 25182A   26085.48825972  .00025716  21050-5  63093-4 0  9999
2 65267  96.5923  18.3805 0009237 113.8189 246.4058 15.96391922 34507
COSMOS 2592             
1 65268U 25182B   26085.44123329  .00066088  35140-5  15936-3 0  9997
2 65268  96.5891  18.2903 0009335 115.6806 244.5438 15.96457271 34494
COSMOS 2593             
1 65269U 25182C   26085.51961512  .00092937  51379-5  22455-3 0  9998
2 65269  96.5864  18.3409 0010387 111.2966 248.9422 15.96354201 34507
COSMOS 2594             
1 65270U 25182D   26085.28453558  .00002139  18468-5  65495-5 0  9990
2 65270  96.5868  18.0923 0009941 112.8616 247.3713 15.96327841 34487
STARLINK-34411          
1 65414U 25192L   26085.61657229  .00898299  40379-3  15767-2 0  9997
2 65414  53.1317 133.5157 0011967   2.1342 357.9738 16.01395355 32255
CZ-4B R/B               
1 67301U 25314B   26085.51398473  .00736800  23295-5  72158-3 0  9999
2 67301  97.3610 168.7334 0050103  45.6292 314.9078 16.08609211 13600
STARLINK-37162          
1 68262U 26055A   26085.50002314 -.00977593  31771-3 -18934-2 0  9999
2 68262  53.1595 253.6676 0000666 101.3284 193.9019 15.99673549  2334
STARLINK-37156          
1 68263U 26055B   26085.50002314 -.00984401  32204-3 -18968-2 0  9995
2 68263  53.1594 253.6643 0000599  91.1157 205.8339 15.99765610  2337
STARLINK-37163          
1 68264U 26055C   26085.50002314 -.00983381  32230-3 -18679-2 0  9990
2 68264  53.1593 253.6549 0000621  86.9887 214.2130 16.00015137  2338
STARLINK-37133          
1 68265U 26055D   26085.50002314 -.00984979  32282-3 -18840-2 0  9992
2 68265  53.1593 253.6597 0000545  98.0804 201.0509 15.99894069  2330
STARLINK-37042          
1 68266U 26055E   26085.50002314 -.00985802  32430-3 -18554-2 0  9996
2 68266  53.1592 253.6497 0000527  88.0644 215.8605 16.00176104  2336
STARLINK-37103          
1 68267U 26055F   26085.50002314 -.00986728  32534-3 -18424-2 0  9996
2 68267  53.1594 253.6447 0000612  89.9023 216.3464 16.00315081  2338
